[{"OBJECT_NAME":"STARLINK-33930","OBJECT_ID":"2025-091B","EPOCH":"2026-03-09T23:36:47.198304","MEAN_MOTION":15.27610061,"ECCENTRICITY":0.00013771,"INCLINATION":43.0043,"RA_OF_ASC_NODE":51.1728,"ARG_OF_PERICENTER":286.4018,"MEAN_ANOMALY":73.6682,"EPHEMERIS_TYPE":0,"CLASSIFICATION_TYPE":"U","NORAD_CAT_ID":63776,"ELEMENT_SET_NO":999,"REV_AT_EPOCH":4894,"BSTAR":0.0013300203,"MEAN_MOTION_DOT":0.00036552,"MEAN_MOTION_DDOT":0},{"OBJECT_NAME":"CZ-4C R\/B","OBJECT_ID":"2022-069B","EPOCH":"2026-03-09T22:08:25.149120","MEAN_MOTION":15.31915595,"ECCENTRICITY":0.00471341,"INCLINATION":97.9961,"RA_OF_ASC_NODE":42.6953,"ARG_OF_PERICENTER":87.2467,"MEAN_ANOMALY":273.4166,"EPHEMERIS_TYPE":0,"CLASSIFICATION_TYPE":"U","NORAD_CAT_ID":52913,"ELEMENT_SET_NO":999,"REV_AT_EPOCH":20482,"BSTAR":0.00043675127,"MEAN_MOTION_DOT":0.00013855,"MEAN_MOTION_DDOT":0}]
